STARLINK-3100
1 29144C 21082Q   21325.18746301 -.00652653  00000-0 -10460-1 0  3252
2 29144  69.9998 295.9751 0003474 272.4946 158.5984 15.53571924    17
